{
  "norad_id": 58084,
  "name": "STARLINK-30586",
  "history": [
    {
      "epoch": "2026-03-28T08:59:43.568448Z",
      "apogee_km": 485.9617891782282,
      "perigee_km": 485.0913393650062,
      "latitude_deg": 1.4677257150842844e-05,
      "longitude_deg": 15.020715314743809,
      "height_km": 485.0439972919494,
      "semi_major_axis_km": 6863.663564271616,
      "eccentricity": 6.341e-05,
      "inclination_deg": 42.9999,
      "raan_deg": 335.7484,
      "arg_perigee_deg": 306.4511,
      "mean_anomaly_deg": 53.6282,
      "mean_motion_rev_day": 15.26752995
    },
    {
      "epoch": "2026-03-29T00:41:48.344064Z",
      "apogee_km": 485.87886802525645,
      "perigee_km": 485.1760287857405,
      "latitude_deg": 2.0048915116450284e-05,
      "longitude_deg": 135.16609184670588,
      "height_km": 484.9654594807601,
      "semi_major_axis_km": 6863.664448405499,
      "eccentricity": 5.12e-05,
      "inclination_deg": 42.9985,
      "raan_deg": 332.0585,
      "arg_perigee_deg": 16.3499,
      "mean_anomaly_deg": 343.7369,
      "mean_motion_rev_day": 15.267527
    },
    {
      "epoch": "2026-03-30T00:14:56.016384Z",
      "apogee_km": 486.92114483935984,
      "perigee_km": 484.42930644896205,
      "latitude_deg": -2.2789643943580436e-05,
      "longitude_deg": 135.38222700728647,
      "height_km": 485.66418918437574,
      "semi_major_axis_km": 6863.812225644161,
      "eccentricity": 0.00018152,
      "inclination_deg": 42.9999,
      "raan_deg": 326.5239,
      "arg_perigee_deg": 260.2077,
      "mean_anomaly_deg": 99.8569,
      "mean_motion_rev_day": 15.26703394
    }
  ]
}